{
  "type": "FeatureCollection",
  "features": [
    {
      "type": "Feature",
      "properties": {
        "norad_id": 67053,
        "name": "STARLINK-35739",
        "group": "last-30-days",
        "lat": 39.73910427269971,
        "lon": 163.26427916310107,
        "alt_km": 362.0728792997952,
        "timestamp": "2025-12-26T03:50:10.810504+00:00",
        "meta_object_name": "STARLINK-35739",
        "meta_object_id": "2025-294Z",
        "meta_epoch": "2025-12-25T20:00:01.999008",
        "meta_mean_motion": 15.68390983,
        "meta_eccentricity": 0.0001713,
        "meta_inclination": 43.0001,
        "meta_ra_of_asc_node": 102.0757,
        "meta_arg_of_pericenter": 286.7285,
        "meta_mean_anomaly": 98.1033,
        "meta_ephemeris_type": 0,
        "meta_classification_type": "U",
        "meta_norad_cat_id": 67053,
        "meta_element_set_no": 999,
        "meta_rev_at_epoch": 205,
        "meta_bstar": -0.018791,
        "meta_mean_motion_dot": -0.01928248,
        "meta_mean_motion_ddot": 0,
        "tle_line1": "1 67053U 25294Z   25359.83335647 -.01928248  00000+0 -18791-1 0  9998",
        "tle_line2": "2 67053  43.0001 102.0757 0001713 286.7285  98.1033 15.68390983  2056"
      },
      "geometry": {
        "type": "Point",
        "coordinates": [
          163.26427916310107,
          39.73910427269971
        ]
      }
    },
    {
      "type": "Feature",
      "properties": {
        "norad_id": 67054,
        "name": "STARLINK-35754",
        "group": "last-30-days",
        "lat": 40.38326180948862,
        "lon": 166.00371948142705,
        "alt_km": 362.0891357605451,
        "timestamp": "2025-12-26T03:50:10.810514+00:00",
        "meta_object_name": "STARLINK-35754",
        "meta_object_id": "2025-294AA",
        "meta_epoch": "2025-12-25T20:00:01.999008",
        "meta_mean_motion": 15.68364905,
        "meta_eccentricity": 0.0001746,
        "meta_inclination": 42.9998,
        "meta_ra_of_asc_node": 102.0702,
        "meta_arg_of_pericenter": 286.2153,
        "meta_mean_anomaly": 100.8382,
        "meta_ephemeris_type": 0,
        "meta_classification_type": "U",
        "meta_norad_cat_id": 67054,
        "meta_element_set_no": 999,
        "meta_rev_at_epoch": 221,
        "meta_bstar": -0.018719,
        "meta_mean_motion_dot": -0.01919859,
        "meta_mean_motion_ddot": 0,
        "tle_line1": "1 67054U 25294AA  25359.83335647 -.01919859  00000+0 -18719-1 0  9997",
        "tle_line2": "2 67054  42.9998 102.0702 0001746 286.2153 100.8382 15.68364905  2216"
      },
      "geometry": {
        "type": "Point",
        "coordinates": [
          166.00371948142705,
          40.38326180948862
        ]
      }
    },
    {
      "type": "Feature",
      "properties": {
        "norad_id": 67055,
        "name": "STARLINK-35790",
        "group": "last-30-days",
        "lat": 40.94993501975573,
        "lon": 168.7329689359372,
        "alt_km": 362.1413764225963,
        "timestamp": "2025-12-26T03:50:10.810526+00:00",
        "meta_object_name": "STARLINK-35790",
        "meta_object_id": "2025-294AB",
        "meta_epoch": "2025-12-25T20:00:01.999008",
        "meta_mean_motion": 15.68349593,
        "meta_eccentricity": 0.0001768,
        "meta_inclination": 42.9997,
        "meta_ra_of_asc_node": 102.0641,
        "meta_arg_of_pericenter": 283.0851,
        "meta_mean_anomaly": 106.1367,
        "meta_ephemeris_type": 0,
        "meta_classification_type": "U",
        "meta_norad_cat_id": 67055,
        "meta_element_set_no": 999,
        "meta_rev_at_epoch": 240,
        "meta_bstar": -0.018749,
        "meta_mean_motion_dot": -0.01921477,
        "meta_mean_motion_ddot": 0,
        "tle_line1": "1 67055U 25294AB  25359.83335647 -.01921477  00000+0 -18749-1 0  9990",
        "tle_line2": "2 67055  42.9997 102.0641 0001768 283.0851 106.1367 15.68349593  2401"
      },
      "geometry": {
        "type": "Point",
        "coordinates": [
          168.7329689359372,
          40.94993501975573
        ]
      }
    },
    {
      "type": "Feature",
      "properties": {
        "norad_id": 67056,
        "name": "STARLINK-36143",
        "group": "last-30-days",
        "lat": 42.17627443707863,
        "lon": 176.56238176233407,
        "alt_km": 362.0185814370352,
        "timestamp": "2025-12-26T03:50:10.810536+00:00",
        "meta_object_name": "STARLINK-36143",
        "meta_object_id": "2025-294AC",
        "meta_epoch": "2025-12-25T20:00:01.999008",
        "meta_mean_motion": 15.68332632,
        "meta_eccentricity": 0.0001735,
        "meta_inclination": 43,
        "meta_ra_of_asc_node": 102.0487,
        "meta_arg_of_pericenter": 285.8697,
        "meta_mean_anomaly": 109.3592,
        "meta_ephemeris_type": 0,
        "meta_classification_type": "U",
        "meta_norad_cat_id": 67056,
        "meta_element_set_no": 999,
        "meta_rev_at_epoch": 240,
        "meta_bstar": -0.018763,
        "meta_mean_motion_dot": -0.01921562,
        "meta_mean_motion_ddot": 0,
        "tle_line1": "1 67056U 25294AC  25359.83335647 -.01921562  00000+0 -18763-1 0  9992",
        "tle_line2": "2 67056  43.0000 102.0487 0001735 285.8697 109.3592 15.68332632  2400"
      },
      "geometry": {
        "type": "Point",
        "coordinates": [
          176.56238176233407,
          42.17627443707863
        ]
      }
    },
    {
      "type": "Feature",
      "properties": {
        "norad_id": 67057,
        "name": "STARLINK-36141",
        "group": "last-30-days",
        "lat": 41.81911166598803,
        "lon": 173.86569470960438,
        "alt_km": 362.02839035392935,
        "timestamp": "2025-12-26T03:50:10.810548+00:00",
        "meta_object_name": "STARLINK-36141",
        "meta_object_id": "2025-294AD",
        "meta_epoch": "2025-12-25T20:00:01.999008",
        "meta_mean_motion": 15.68340771,
        "meta_eccentricity": 0.0001756,
        "meta_inclination": 42.9999,
        "meta_ra_of_asc_node": 102.0544,
        "meta_arg_of_pericenter": 286.3348,
        "meta_mean_anomaly": 106.8461,
        "meta_ephemeris_type": 0,
        "meta_classification_type": "U",
        "meta_norad_cat_id": 67057,
        "meta_element_set_no": 999,
        "meta_rev_at_epoch": 232,
        "meta_bstar": -0.018746,
        "meta_mean_motion_dot": -0.01920607,
        "meta_mean_motion_ddot": 0,
        "tle_line1": "1 67057U 25294AD  25359.83335647 -.01920607  00000+0 -18746-1 0  9993",
        "tle_line2": "2 67057  42.9999 102.0544 0001756 286.3348 106.8461 15.68340771  2323"
      },
      "geometry": {
        "type": "Point",
        "coordinates": [
          173.86569470960438,
          41.81911166598803
        ]
      }
    },
    {
      "type": "Feature",
      "properties": {
        "norad_id": 67058,
        "name": "STARLINK-35767",
        "group": "last-30-days",
        "lat": 41.41917716033868,
        "lon": 171.3146500382841,
        "alt_km": 361.990601186455,
        "timestamp": "2025-12-26T03:50:10.810558+00:00",
        "meta_object_name": "STARLINK-35767",
        "meta_object_id": "2025-294AE",
        "meta_epoch": "2025-12-25T20:00:01.999008",
        "meta_mean_motion": 15.68347464,
        "meta_eccentricity": 0.0001588,
        "meta_inclination": 43.0003,
        "meta_ra_of_asc_node": 102.059,
        "meta_arg_of_pericenter": 284.6167,
        "meta_mean_anomaly": 106.6124,
        "meta_ephemeris_type": 0,
        "meta_classification_type": "U",
        "meta_norad_cat_id": 67058,
        "meta_element_set_no": 999,
        "meta_rev_at_epoch": 221,
        "meta_bstar": -0.018841,
        "meta_mean_motion_dot": -0.01929528,
        "meta_mean_motion_ddot": 0,
        "tle_line1": "1 67058U 25294AE  25359.83335647 -.01929528  00000+0 -18841-1 0  9991",
        "tle_line2": "2 67058  43.0003 102.0590 0001588 284.6167 106.6124 15.68347464  2214"
      },
      "geometry": {
        "type": "Point",
        "coordinates": [
          171.3146500382841,
          41.41917716033868
        ]
      }
    },
    {
      "type": "Feature",
      "properties": {
        "norad_id": 67059,
        "name": "HULIANWANG DIGUI-119",
        "group": "last-30-days",
        "lat": -27.009960858357918,
        "lon": -69.70236559963192,
        "alt_km": 804.3445847555904,
        "timestamp": "2025-12-26T03:50:10.810568+00:00",
        "meta_object_name": "HULIANWANG DIGUI-119",
        "meta_object_id": "2025-295A",
        "meta_epoch": "2025-12-25T19:35:18.828960",
        "meta_mean_motion": 14.24617126,
        "meta_eccentricity": 0.0014018,
        "meta_inclination": 50.005,
        "meta_ra_of_asc_node": 317.0825,
        "meta_arg_of_pericenter": 292.5369,
        "meta_mean_anomaly": 67.406,
        "meta_ephemeris_type": 0,
        "meta_classification_type": "U",
        "meta_norad_cat_id": 67059,
        "meta_element_set_no": 999,
        "meta_rev_at_epoch": 198,
        "meta_bstar": 8.0938e-05,
        "meta_mean_motion_dot": 3e-07,
        "meta_mean_motion_ddot": 0,
        "tle_line1": "1 67059U 25295A   25359.81619015  .00000030  00000+0  80938-4 0  9999",
        "tle_line2": "2 67059  50.0050 317.0825 0014018 292.5369  67.4060 14.24617126  1980"
      },
      "geometry": {
        "type": "Point",
        "coordinates": [
          -69.70236559963192,
          -27.009960858357918
        ]
      }
    }
  ]
}